GLOBALSTAR M035         
1 25851U 99037A   25324.21840456 -.00000108  00000+0 -16685-2 0  9993
2 25851  51.9960  66.9959 0013334 231.0365 135.3934 11.04540401113509
GLOBALSTAR M032         
1 25852U 99037B   25324.11216494  .00000060  00000+0  40597-2 0  9996
2 25852  51.9944 241.6798 0013242  67.9660 292.2546 11.19070187152248
GLOBALSTAR M051         
1 25853U 99037C   25323.91464076 -.00000089  00000+0 -42417-3 0  9992
2 25853  51.9829  25.2161 0000731 136.7976 223.2892 11.42206733150188
GLOBALSTAR M030         
1 25854U 99037D   25323.93221642 -.00000096  00000+0 -44480-3 0  9995
2 25854  51.9850 181.3766 0003047 347.6432  12.4309 11.55109402168045
GLOBALSTAR M048         
1 25872U 99041A   25324.24785436 -.00000061  00000+0  24865-3 0  9997
2 25872  51.9388 325.4819 0013326  94.2268 350.2708 11.33860166142689
GLOBALSTAR M026         
1 25873U 99041B   25324.04647578 -.00000144  00000+0 -29237-2 0  9990
2 25873  51.9978 183.6979 0001941 135.1990  16.1246 11.06848478165742
GLOBALSTAR M043         
1 25874U 99041C   25323.64925205 -.00000085  00000+0 -49795-3 0  9998
2 25874  51.9403  80.7365 0013504 212.1036 161.1143 11.25696457140386
GLOBALSTAR M028         
1 25875U 99041D   25324.08469481 -.00000117  00000+0 -10724-3 0  9993
2 25875  51.9619  88.2005 0063666  50.7603 309.8885 12.50591737209687
